KUIPER-00071            
1 64818U 25151C   25294.47698166  .00008391  00000+0  11273-2 0  9996
2 64818  51.9001 198.6694 0008384 119.5773 240.6026 14.79956948 14652
KUIPER-00072            
1 64819U 25151D   25294.83335647 -.01071287  00000+0 -70342-1 0  9997
2 64819  51.8878 179.3754 0003163 128.4010 300.5659 15.10006231  4463
KUIPER-00073            
1 64820U 25151E   25294.44322769 -.00006370  00000+0 -80591-3 0  9996
2 64820  51.9003 198.8145 0013682 149.2487 210.9280 14.79914611 15833
KUIPER-00074            
1 64821U 25151F   25294.83335647 -.00039252  00000+0 -47389-2 0  9991
2 64821  51.8991 184.6640 0013018 166.6200  17.9881 14.83321714  5798
KUIPER-00075            
1 64822U 25151G   25294.85334032  .00070093  00000+0  17635-2 0  9998
2 64822  51.8763 175.9549 0006436 126.7916 233.3663 15.39273749 15007
KUIPER-00076            
1 64823U 25151H   25294.83335647 -.00024334  00000+0 -31735-2 0  9996
2 64823  51.9001 187.1023 0003649 162.6355  59.2985 14.79939695  5334
KUIPER-00077            
1 64824U 25151J   25294.44855760  .00002601  00000+0  36989-3 0  9995
2 64824  51.9007 193.8035 0006430 110.0345 250.1310 14.79966620 14720
KUIPER-00078            
1 64825U 25151K   25294.41751571  .00007819  00000+0  10519-2 0  9994
2 64825  51.9005 191.4409 0007796 176.8795 183.2218 14.79983473 14754
